BEIDOU-3 G4 (C62)       
1 56564U 23066A   26064.82885321 -.00000118  00000+0  00000+0 0  9997
2 56564   0.6460 311.1048 0002180 157.4827 153.3957  1.00272376 10357
NVS-01 (IRNSS-1J)       
1 56759U 23076A   26064.77060310 -.00000345  00000+0  00000+0 0  9993
2 56759   2.4154 248.5785 0007280  45.6686 276.1901  1.00273479 10078
COSMOS 2569 (703K)      
1 57517U 23114A   26063.60906547  .00000011  00000+0  00000+0 0  9990
2 57517  65.2420  76.1460 0012898 291.6250  68.2783  2.13103963 20030
BEIDOU-3 M28 (C50)      
1 58654U 23207A   26064.12943781 -.00000033  00000+0  00000+0 0  9990
2 58654  55.6609  65.8120 0004920 303.0244  56.9487  1.86229789 14909
BEIDOU-3 M26 (C48)      
1 58655U 23207B   26063.92691823 -.00000032  00000+0  00000+0 0  9994
2 58655  55.6628  65.8051 0005726 288.5052  71.4537  1.86229670 14887
GSAT0225 (GALILEO 29)   
1 59598U 24079A   26064.58030672  .00000007  00000+0  00000+0 0  9992
2 59598  55.0507 103.9743 0002603 257.7426 101.8321  1.70474989 11547
GSAT0227 (GALILEO 30)   
1 59600U 24079C   26062.41821347  .00000012  00000+0  00000+0 0  9999
2 59600  55.0440 104.0338 0000359  68.5105 291.5792  1.70474834 11567
GSAT0232 (GALILEO 32)   
1 61182U 24167A   26048.66150565  .00000069  00000+0  00000+0 0  9995
2 61182  55.2225 224.5881 0003600 296.6314 116.1306  1.70443939  8265
GSAT0226 (GALILEO 31)   
1 61183U 24167B   26063.09230740  .00000011  00000+0  00000+0 0  9991
2 61183  55.2176 224.2005 0001588 128.6581 232.0353  1.70474186  9066
BEIDOU-3 M25 (C47)      
1 61186U 24168B   26064.44771763 -.00000067  00000+0  00000+0 0  9992
2 61186  54.5648 305.8483 0004268 318.9478 147.1808  1.86230220  9852
BEIDOU-3 M27 (C49)      
1 61187U 24168C   26064.31689484 -.00000067  00000+0  00000+0 0  9997
2 61187  54.5604 305.8361 0002980  20.4343 132.9740  1.86230358  7324
GPS BIII-7  (PRN 01)    
1 62339U 24242A   26059.41642148 -.00000100  00000+0  00000+0 0  9999
2 62339  54.8934 338.5934 0015681 355.9356 192.4850  2.00569355  9070
NVS-02 (IRNSS-1K)       
1 62850U 25020A   26064.70021400  .00001106  00000+0  92944-3 0  9990
2 62850  20.8392 297.2471 7349926  80.6034 348.3170  2.17719886  8722
QZS-6 (QZSS/PRN 200)    
1 62876U 25023A   26064.67143064 -.00000240  00000+0  00000+0 0  9995
2 62876   0.0422 311.0712 0001848  30.5433 153.9892  1.00269908  3929
COSMOS 2584 (704K)      
1 63130U 25042A   26059.74188024  .00000039  00000+0  00000+0 0  9992
2 63130  65.0213  76.4877 0007822 236.2440 123.7373  2.13103267  7739
GPS BIII-8  (PRN 21)    
1 64202U 25116A   26062.39238152 -.00000077  00000+0  00000+0 0  9991
2 64202  55.1633  35.3874 0008474 325.1064  37.8908  2.00553198  5758
COSMOS 2596 (708K)      
1 65590U 25206B   26062.63521083 -.00000053  00000+0  00000+0 0  9991
2 65590  64.6947 318.6620 0012898 315.4778 221.7374  2.13100238  3663
